{"features":[{"geometry":{"coordinates":[-121.813,48.777],"type":"Point"},"id":"321010","properties":{"lahar_risk_drainages":["Not provided by this source"],"last_major_eruption":"Not provided by this source","name":"Mount Baker","nvews_threat_source":"Very High Threat","source_url":"https://www.usgs.gov/volcanoes/mount-baker","threat_level":"Very High","vnum":"321010"},"type":"Feature"},{"geometry":{"coordinates":[-121.113,48.112],"type":"Point"},"id":"321020","properties":{"lahar_risk_drainages":["Not provided by this source"],"last_major_eruption":"Not provided by this source","name":"Glacier Peak","nvews_threat_source":"Very High Threat","source_url":"https://www.usgs.gov/volcanoes/glacier-peak","threat_level":"Very High","vnum":"321020"},"type":"Feature"},{"geometry":{"coordinates":[-121.76,46.853],"type":"Point"},"id":"321030","properties":{"lahar_risk_drainages":["Not provided by this source"],"last_major_eruption":"Not provided by this source","name":"Mount Rainier","nvews_threat_source":"Very High Threat","source_url":"https://www.usgs.gov/volcanoes/mount-rainier","threat_level":"Very High","vnum":"321030"},"type":"Feature"},{"geometry":{"coordinates":[-121.49,46.206],"type":"Point"},"id":"321040","properties":{"lahar_risk_drainages":["Not provided by this source"],"last_major_eruption":"Not provided by this source","name":"Mount Adams","nvews_threat_source":"High Threat","source_url":"https://www.usgs.gov/volcanoes/mount-adams","threat_level":"High","vnum":"321040"},"type":"Feature"},{"geometry":{"coordinates":[-122.18,46.2],"type":"Point"},"id":"321050","properties":{"lahar_risk_drainages":["Not provided by this source"],"last_major_eruption":"Not provided by this source","name":"Mount St. Helens","nvews_threat_source":"Very High Threat","source_url":"https://www.usgs.gov/volcanoes/mount-st-helens","threat_level":"Very High","vnum":"321050"},"type":"Feature"},{"geometry":{"coordinates":[-122.08,45.88],"type":"Point"},"id":"321060","properties":{"lahar_risk_drainages":["Not provided by this source"],"last_major_eruption":"Not provided by this source","name":"West Crater volcanic field","nvews_threat_source":"Low Threat","source_url":"https://www.usgs.gov/volcanoes/west-crater-volcanic-field","threat_level":"Low","vnum":"321060"},"type":"Feature"},{"geometry":{"coordinates":[-121.82,45.93],"type":"Point"},"id":"321070","properties":{"lahar_risk_drainages":["Not provided by this source"],"last_major_eruption":"Not provided by this source","name":"Indian Heaven Volcanic Field","nvews_threat_source":"Low Threat","source_url":"https://www.usgs.gov/volcanoes/indian-heaven-volcanic-field","threat_level":"Low","vnum":"321070"},"type":"Feature"},{"geometry":{"coordinates":[-121.695,45.374],"type":"Point"},"id":"322010","properties":{"lahar_risk_drainages":["Not provided by this source"],"last_major_eruption":"Not provided by this source","name":"Mount Hood","nvews_threat_source":"Very High Threat","source_url":"https://www.usgs.gov/volcanoes/mount-hood","threat_level":"Very High","vnum":"322010"},"type":"Feature"},{"geometry":{"coordinates":[-121.8,44.674],"type":"Point"},"id":"322020","properties":{"lahar_risk_drainages":["Not provided by this source"],"last_major_eruption":"Not provided by this source","name":"Mount Jefferson","nvews_threat_source":"Low Threat","source_url":"https://www.usgs.gov/volcanoes/mount-jefferson","threat_level":"Low","vnum":"322020"},"type":"Feature"},{"geometry":{"coordinates":[-121.77,44.42],"type":"Point"},"id":"322030","properties":{"lahar_risk_drainages":["Not provided by this source"],"last_major_eruption":"Not provided by this source","name":"Blue Lake Crater","nvews_threat_source":"Low Threat","source_url":"https://www.usgs.gov/volcanoes/blue-lake-crater","threat_level":"Low","vnum":"322030"},"type":"Feature"},{"geometry":{"coordinates":[-121.93,44.38],"type":"Point"},"id":"322040","properties":{"lahar_risk_drainages":["Not provided by this source"],"last_major_eruption":"Not provided by this source","name":"Sand Mountain volcanic field","nvews_threat_source":"Very Low Threat","source_url":"https://www.usgs.gov/volcanoes/sand-mountain-volcanic-field","threat_level":"Very Low","vnum":"322040"},"type":"Feature"},{"geometry":{"coordinates":[-121.841,44.285],"type":"Point"},"id":"322060","properties":{"lahar_risk_drainages":["Not provided by this source"],"last_major_eruption":"Not provided by this source","name":"Belknap Crater","nvews_threat_source":"Low Threat","source_url":"https://www.usgs.gov/volcanoes/belknap","threat_level":"Low","vnum":"322060"},"type":"Feature"},{"geometry":{"coordinates":[-121.768,44.103],"type":"Point"},"id":"322070","properties":{"lahar_risk_drainages":["Not provided by this source"],"last_major_eruption":"Not provided by this source","name":"Three Sisters","nvews_threat_source":"Very High Threat","source_url":"https://www.usgs.gov/volcanoes/three-sisters","threat_level":"Very High","vnum":"322070"},"type":"Feature"},{"geometry":{"coordinates":[-121.688,43.979],"type":"Point"},"id":"322090","properties":{"lahar_risk_drainages":["Not provided by this source"],"last_major_eruption":"Not provided by this source","name":"Mount Bachelor","nvews_threat_source":"Moderate Threat","source_url":"https://www.usgs.gov/volcanoes/mount-bachelor","threat_level":"Moderate","vnum":"322090"},"type":"Feature"},{"geometry":{"coordinates":[-121.82,43.57],"type":"Point"},"id":"322100","properties":{"lahar_risk_drainages":["Not provided by this source"],"last_major_eruption":"Not provided by this source","name":"Davis Lake volcanic field","nvews_threat_source":"Very Low Threat","source_url":"https://www.usgs.gov/volcanoes/davis-lake-volcanic-field","threat_level":"Very Low","vnum":"322100"},"type":"Feature"},{"geometry":{"coordinates":[-121.229,43.722],"type":"Point"},"id":"322110","properties":{"lahar_risk_drainages":["Not provided by this source"],"last_major_eruption":"Not provided by this source","name":"Newberry","nvews_threat_source":"Very High Threat","source_url":"https://www.usgs.gov/volcanoes/newberry","threat_level":"Very High","vnum":"322110"},"type":"Feature"},{"geometry":{"coordinates":[-120.861,43.512],"type":"Point"},"id":"322120","properties":{"lahar_risk_drainages":["Not provided by this source"],"last_major_eruption":"Not provided by this source","name":"Devils Garden lava field","nvews_threat_source":"Very Low Threat","source_url":"https://www.usgs.gov/volcanoes/devils-garden-lava-field","threat_level":"Very Low","vnum":"322120"},"type":"Feature"},{"geometry":{"coordinates":[-122.108,43.241],"type":"Point"},"id":"322150","properties":{"lahar_risk_drainages":["Not provided by this source"],"last_major_eruption":"Not provided by this source","name":"Cinnamon Butte","nvews_threat_source":"Very Low Threat","source_url":"https://www.usgs.gov/volcanoes/cinnamon-butte","threat_level":"Very Low","vnum":"322150"},"type":"Feature"},{"geometry":{"coordinates":[-122.12,42.93],"type":"Point"},"id":"322160","properties":{"lahar_risk_drainages":["Not provided by this source"],"last_major_eruption":"Not provided by this source","name":"Crater Lake","nvews_threat_source":"Very High Threat","source_url":"https://www.usgs.gov/volcanoes/crater-lake","threat_level":"Very High","vnum":"322160"},"type":"Feature"},{"geometry":{"coordinates":[-118.75,43.1],"type":"Point"},"id":"322170","properties":{"lahar_risk_drainages":["Not provided by this source"],"last_major_eruption":"Not provided by this source","name":"Diamond Craters volcanic field","nvews_threat_source":"Very Low Threat","source_url":"https://www.usgs.gov/volcanoes/diamond-craters-volcanic-field","threat_level":"Very Low","vnum":"322170"},"type":"Feature"},{"geometry":{"coordinates":[-117.47,43.15],"type":"Point"},"id":"322190","properties":{"lahar_risk_drainages":["Not provided by this source"],"last_major_eruption":"Not provided by this source","name":"Jordan Craters volcanic field","nvews_threat_source":"Very Low Threat","source_url":"https://www.usgs.gov/volcanoes/jordan-craters-volcanic-field","threat_level":"Very Low","vnum":"322190"},"type":"Feature"},{"geometry":{"coordinates":[-122.193,41.409],"type":"Point"},"id":"323010","properties":{"lahar_risk_drainages":["Not provided by this source"],"last_major_eruption":"Not provided by this source","name":"Mount Shasta","nvews_threat_source":"Very High Threat","source_url":"https://www.usgs.gov/volcanoes/mount-shasta","threat_level":"Very High","vnum":"323010"},"type":"Feature"},{"geometry":{"coordinates":[-121.554,41.611],"type":"Point"},"id":"323020","properties":{"lahar_risk_drainages":["Not provided by this source"],"last_major_eruption":"Not provided by this source","name":"Medicine Lake volcano","nvews_threat_source":"High Threat","source_url":"https://www.usgs.gov/volcanoes/medicine-lake","threat_level":"High","vnum":"323020"},"type":"Feature"},{"geometry":{"coordinates":[-121.508,40.492],"type":"Point"},"id":"323080","properties":{"lahar_risk_drainages":["Not provided by this source"],"last_major_eruption":"Not provided by this source","name":"Lassen Volcanic Center","nvews_threat_source":"Very High Threat","source_url":"https://www.usgs.gov/volcanoes/lassen-volcanic-center","threat_level":"Very High","vnum":"323080"},"type":"Feature"}],"provenance":{"citation":"https://volcanoes.usgs.gov/vsc/api/volcanoApi/","clipped":true,"license":"USGS public domain; source attribution retained","license_url":"https://www.usgs.gov/information-policies-and-instructions/copyrights-and-credits","source_sha256":"5abfb6ba963967a1f8b1509746dc8233016a64f5480f726970024f8a9be3155a","source_url":"https://volcanoes.usgs.gov/vsc/api/volcanoApi/geojson","study_bounds":[-124.8,40.0,-114.5,49.0],"whole_cascadia_bioregion":false},"type":"FeatureCollection"}
