{"features":[{"geometry":{"coordinates":[[-124.784386135712,40.3753451187823],[-124.953002930041,40.6329994199873],[-124.932998656862,40.8839988711511],[-125.088996887296,41.1349983214155],[-125.181999205599,41.380001067995],[-125.308998107776,41.6520004272779],[-125.280998230284,41.8180007934019],[-125.313003539782,41.986000061054],[-125.331001281584,42.1419982905887],[-125.29000091521,42.2849998470654],[-125.208999634126,42.3590011596758],[-125.197998046772,42.4920005795631],[-125.267997741403,42.5610008243286],[-125.289001464446,42.861999511868],[-125.289001464446,43.0509986876394],[-125.343002319701,43.143001556077],[-125.393997192816,43.2669982910384],[-125.473999023136,43.4259986877893],[-125.48000335667,43.736999511918],[-125.449996947801,43.9249992369253],[-125.429000854606,44.0019989009286],[-125.361999511368,44.0660018918738],[-125.372001647958,44.3230018616467],[-125.372001647958,44.5229988098473],[-125.375999451014,44.666999817088],[-125.433998108426,44.7249984753994],[-125.436996459819,44.8810005189588],[-125.434997558291,45.1040000917309],[-125.516998291038,45.4739990231365],[-125.65499877967,45.9459991464435],[-125.773002624072,46.2949981688305],[-125.875999450914,46.6430015562768],[-125.998001098372,46.9700012206798],[-126.08499908404,47.3499984737506],[-126.37000274623,47.7480010975726],[-126.486000061054,47.9959983824195],[-126.733001709161,48.2910003662739],[-127.017997742402,48.564998627085],[-127.377998352142,48.7499999998002],[-127.608001709211,48.8769989010785],[-127.818000793102,49.0800018314195],[-127.851997375179,49.4910011291988],[-128.029006957605,49.7809982302841],[-128.283004761061,49.8849983219151],[-128.414001463597,50.0859985349045],[-128.718994141067,50.3100013733647],[-129.009994506941,50.4790000917808],[-129.460006713439,50.6469993594329],[-129.73800659223,50.8359985352043],[-129.8890024853725,51.0]],"type":"LineString"},"id":"20","properties":{"Id":0,"Name":"North America:Juan de Fuca","OBJECTID":20,"Shape__Length":1408593.622575866,"SymbolID":3,"Type":"Convergent","display_scope":"USGS Juan de Fuca convergent boundary within offshore study window; not a hazard-probability surface","name":"North America:Juan de Fuca"},"type":"Feature"}],"provenance":{"citation":"https://www.usgs.gov/special-topics/subduction-zone-science/science/cascadia-subduction-zone-database","clipped":true,"license":"USGS public domain; source attribution retained","license_url":"https://www.usgs.gov/information-policies-and-instructions/copyrights-and-credits","source_sha256":"e28eadd2cf38ab7b6c24f33cfacd78322504126dfcf1a4e54fd7e454a76bee05","source_url":"https://services.arcgis.com/v01gqwM5QqNysAAi/arcgis/rest/services/Cascadia_tectonic_features/FeatureServer/5/query?geometry=-130.0%2C40.0%2C-120.0%2C51.0&geometryType=esriGeometryEnvelope&inSR=4326&spatialRel=esriSpatialRelIntersects&outSR=4326&returnGeometry=true&f=geojson&resultRecordCount=1000&where=1%3D1&outFields=%2A","study_bounds":[-130.0,40.0,-120.0,51.0],"whole_cascadia_bioregion":false},"type":"FeatureCollection"}
